{"type": "FeatureCollection", "features": [ {"type": "Feature", "properties": {"norad_id": 34058, "name": "COSMOS 2251 DEB", "group": "cosmos-2251-debris", "lat": 45.58158463991368, "lon": 171.95609072406162, "alt_km": 1080.3736060023884, "timestamp": "2025-12-27T02:10:16.582671+00:00", "meta": {"OBJECT_NAME": "COSMOS 2251 DEB", "OBJECT_ID": "1993-036JV", "EPOCH": "2025-12-26T19:26:10.735008", "MEAN_MOTION": 13.5609898, "ECCENTRICITY": 0.0377281, "INCLINATION": 73.9319, "RA_OF_ASC_NODE": 155.3063, "ARG_OF_PERICENTER": 147.8669, "MEAN_ANOMALY": 335.0199, "EPHEMERIS_TYPE": 0, "CLASSIFICATION_TYPE": "U", "NORAD_CAT_ID": 34058, "ELEMENT_SET_NO": 999, "REV_AT_EPOCH": 83333, "BSTAR": 0.00083436, "MEAN_MOTION_DOT": 9.05e-06, "MEAN_MOTION_DDOT": 0}, "tle": {"line1": "1 34058U 93036JV  25360.80984647  .00000905  00000+0  83436-3 0  9993", "line2": "2 34058  73.9319 155.3063 0377281 147.8669 335.0199 13.56098980833335"}}, "geometry": {"type": "Point", "coordinates": [171.95609072406162, 45.58158463991368]}}, {"type": "Feature", "properties": {"norad_id": 34059, "name": "COSMOS 2251 DEB", "group": "cosmos-2251-debris", "lat": -51.605906243236795, "lon": 0.37663502566250073, "alt_km": 709.3003327074393, "timestamp": "2025-12-27T02:10:16.582681+00:00", "meta": {"OBJECT_NAME": "COSMOS 2251 DEB", "OBJECT_ID": "1993-036JW", "EPOCH": "2025-12-26T13:51:00.480096", "MEAN_MOTION": 14.5303358, "ECCENTRICITY": 0.0018378, "INCLINATION": 74.0377, "RA_OF_ASC_NODE": 160.1711, "ARG_OF_PERICENTER": 236.4774, "MEAN_ANOMALY": 193.7019, "EPHEMERIS_TYPE": 0, "CLASSIFICATION_TYPE": "U", "NORAD_CAT_ID": 34059, "ELEMENT_SET_NO": 999, "REV_AT_EPOCH": 88660, "BSTAR": 0.00096459, "MEAN_MOTION_DOT": 3.966e-05, "MEAN_MOTION_DDOT": 0}, "tle": {"line1": "1 34059U 93036JW  25360.57708889  .00003966  00000+0  96459-3 0  9999", "line2": "2 34059  74.0377 160.1711 0018378 236.4774 193.7019 14.53033580886608"}}, "geometry": {"type": "Point", "coordinates": [0.37663502566250073, -51.605906243236795]}}, {"type": "Feature", "properties": {"norad_id": 34061, "name": "COSMOS 2251 DEB", "group": "cosmos-2251-debris", "lat": -64.47305076150641, "lon": -159.9577379317812, "alt_km": 750.1847018238686, "timestamp": "2025-12-27T02:10:16.582691+00:00", "meta": {"OBJECT_NAME": "COSMOS 2251 DEB", "OBJECT_ID": "1993-036JY", "EPOCH": "2025-12-26T18:28:19.284960", "MEAN_MOTION": 14.40384743, "ECCENTRICITY": 0.0020931, "INCLINATION": 74.0384, "RA_OF_ASC_NODE": 237.4561, "ARG_OF_PERICENTER": 312.3988, "MEAN_ANOMALY": 115.1018, "EPHEMERIS_TYPE": 0, "CLASSIFICATION_TYPE": "U", "NORAD_CAT_ID": 34061, "ELEMENT_SET_NO": 999, "REV_AT_EPOCH": 88382, "BSTAR": 0.00028377, "MEAN_MOTION_DOT": 8.76e-06, "MEAN_MOTION_DDOT": 0}, "tle": {"line1": "1 34061U 93036JY  25360.76966765  .00000876  00000+0  28377-3 0  9993", "line2": "2 34061  74.0384 237.4561 0020931 312.3988 115.1018 14.40384743883823"}}, "geometry": {"type": "Point", "coordinates": [-159.9577379317812, -64.47305076150641]}}, {"type": "Feature", "properties": {"norad_id": 34062, "name": "COSMOS 2251 DEB", "group": "cosmos-2251-debris", "lat": -58.33708935933805, "lon": -42.527517643136214, "alt_km": 610.0872696803526, "timestamp": "2025-12-27T02:10:16.582702+00:00", "meta": {"OBJECT_NAME": "COSMOS 2251 DEB", "OBJECT_ID": "1993-036JZ", "EPOCH": "2025-12-26T17:30:38.710080", "MEAN_MOTION": 14.79227071, "ECCENTRICITY": 0.0072473, "INCLINATION": 74.0278, "RA_OF_ASC_NODE": 110.5102, "ARG_OF_PERICENTER": 186.6664, "MEAN_ANOMALY": 294.0438, "EPHEMERIS_TYPE": 0, "CLASSIFICATION_TYPE": "U", "NORAD_CAT_ID": 34062, "ELEMENT_SET_NO": 999, "REV_AT_EPOCH": 88802, "BSTAR": 0.0029365, "MEAN_MOTION_DOT": 0.00022844, "MEAN_MOTION_DDOT": 0}, "tle": {"line1": "1 34062U 93036JZ  25360.72961470  .00022844  00000+0  29365-2 0  9994", "line2": "2 34062  74.0278 110.5102 0072473 186.6664 294.0438 14.79227071888021"}}, "geometry": {"type": "Point", "coordinates": [-42.527517643136214, -58.33708935933805]}}, {"type": "Feature", "properties": {"norad_id": 34064, "name": "COSMOS 2251 DEB", "group": "cosmos-2251-debris", "lat": 6.474513767661678, "lon": -113.89274208809766, "alt_km": 743.8641680961928, "timestamp": "2025-12-27T02:10:16.582712+00:00", "meta": {"OBJECT_NAME": "COSMOS 2251 DEB", "OBJECT_ID": "1993-036KB", "EPOCH": "2025-12-26T18:07:21.065952", "MEAN_MOTION": 14.42383524, "ECCENTRICITY": 0.0022414, "INCLINATION": 74.0316, "RA_OF_ASC_NODE": 244.8671, "ARG_OF_PERICENTER": 309.5865, "MEAN_ANOMALY": 116.3403, "EPHEMERIS_TYPE": 0, "CLASSIFICATION_TYPE": "U", "NORAD_CAT_ID": 34064, "ELEMENT_SET_NO": 999, "REV_AT_EPOCH": 88344, "BSTAR": 0.00048025, "MEAN_MOTION_DOT": 1.566e-05, "MEAN_MOTION_DDOT": 0}, "tle": {"line1": "1 34064U 93036KB  25360.75510493  .00001566  00000+0  48025-3 0  9997", "line2": "2 34064  74.0316 244.8671 0022414 309.5865 116.3403 14.42383524883442"}}, "geometry": {"type": "Point", "coordinates": [-113.89274208809766, 6.474513767661678]}}, {"type": "Feature", "properties": {"norad_id": 34065, "name": "COSMOS 2251 DEB", "group": "cosmos-2251-debris", "lat": 20.714778646381976, "lon": 45.47334680111316, "alt_km": 776.2753311188771, "timestamp": "2025-12-27T02:10:16.582721+00:00", "meta": {"OBJECT_NAME": "COSMOS 2251 DEB", "OBJECT_ID": "1993-036KC", "EPOCH": "2025-12-26T09:32:37.060224", "MEAN_MOTION": 14.38076343, "ECCENTRICITY": 0.0016906, "INCLINATION": 74.0346, "RA_OF_ASC_NODE": 232.9641, "ARG_OF_PERICENTER": 328.2288, "MEAN_ANOMALY": 204.7898, "EPHEMERIS_TYPE": 0, "CLASSIFICATION_TYPE": "U", "NORAD_CAT_ID": 34065, "ELEMENT_SET_NO": 999, "REV_AT_EPOCH": 88401, "BSTAR": 0.00014743, "MEAN_MOTION_DOT": 4.21e-06, "MEAN_MOTION_DDOT": 0}, "tle": {"line1": "1 34065U 93036KC  25360.39765116  .00000421  00000+0  14743-3 0  9991", "line2": "2 34065  74.0346 232.9641 0016906 328.2288 204.7898 14.38076343884014"}}, "geometry": {"type": "Point", "coordinates": [45.47334680111316, 20.714778646381976]}}, {"type": "Feature", "properties": {"norad_id": 34070, "name": "COSMOS 2251 DEB", "group": "cosmos-2251-debris", "lat": -73.3474416980363, "lon": -18.34916608139789, "alt_km": 637.9473751246951, "timestamp": "2025-12-27T02:10:16.582732+00:00", "meta": {"OBJECT_NAME": "COSMOS 2251 DEB", "OBJECT_ID": "1993-036KH", "EPOCH": "2025-12-25T01:01:03.747072", "MEAN_MOTION": 14.774265, "ECCENTRICITY": 0.00178437, "INCLINATION": 74.0006, "RA_OF_ASC_NODE": 92.0864, "ARG_OF_PERICENTER": 209.6173, "MEAN_ANOMALY": 326.6955, "EPHEMERIS_TYPE": 0, "CLASSIFICATION_TYPE": "U", "NORAD_CAT_ID": 34070, "ELEMENT_SET_NO": 999, "REV_AT_EPOCH": 88792, "BSTAR": 0.0025645795, "MEAN_MOTION_DOT": 0.00018324, "MEAN_MOTION_DDOT": 0}, "tle": {"line1": "1 34070U 93036KH  25359.04240448  .00018324  00000+0  25646-2 0  9997", "line2": "2 34070  74.0006  92.0864 0017843 209.6173 326.6955 14.77426500887929"}}, "geometry": {"type": "Point", "coordinates": [-18.34916608139789, -73.3474416980363]}}, {"type": "Feature", "properties": {"norad_id": 34114, "name": "COSMOS 2251 DEB", "group": "cosmos-2251-debris", "lat": 55.7070323439626, "lon": 171.85977205967666, "alt_km": 712.4591196256033, "timestamp": "2025-12-27T02:10:16.582742+00:00", "meta": {"OBJECT_NAME": "COSMOS 2251 DEB", "OBJECT_ID": "1993-036KK", "EPOCH": "2025-12-26T11:22:16.181760", "MEAN_MOTION": 14.56564007, "ECCENTRICITY": 0.0048324, "INCLINATION": 74.0594, "RA_OF_ASC_NODE": 17.8054, "ARG_OF_PERICENTER": 7.8973, "MEAN_ANOMALY": 120.0303, "EPHEMERIS_TYPE": 0, "CLASSIFICATION_TYPE": "U", "NORAD_CAT_ID": 34114, "ELEMENT_SET_NO": 999, "REV_AT_EPOCH": 88001, "BSTAR": 0.0017463, "MEAN_MOTION_DOT": 7.882e-05, "MEAN_MOTION_DDOT": 0}, "tle": {"line1": "1 34114U 93036KK  25360.47379840  .00007882  00000+0  17463-2 0  9999", "line2": "2 34114  74.0594  17.8054 0048324   7.8973 120.0303 14.56564007880018"}}, "geometry": {"type": "Point", "coordinates": [171.85977205967666, 55.7070323439626]}}, {"type": "Feature", "properties": {"norad_id": 34115, "name": "COSMOS 2251 DEB", "group": "cosmos-2251-debris", "lat": -13.820049449106245, "lon": -150.40257079115617, "alt_km": 620.7199664168093, "timestamp": "2025-12-27T02:10:16.582752+00:00", "meta": {"OBJECT_NAME": "COSMOS 2251 DEB", "OBJECT_ID": "1993-036KL", "EPOCH": "2025-12-26T06:45:50.181120", "MEAN_MOTION": 14.79663462, "ECCENTRICITY": 0.0029111, "INCLINATION": 74.0052, "RA_OF_ASC_NODE": 215.2379, "ARG_OF_PERICENTER": 34.6993, "MEAN_ANOMALY": 325.6074, "EPHEMERIS_TYPE": 0, "CLASSIFICATION_TYPE": "U", "NORAD_CAT_ID": 34115, "ELEMENT_SET_NO": 999, "REV_AT_EPOCH": 89612, "BSTAR": 0.00088326, "MEAN_MOTION_DOT": 6.648e-05, "MEAN_MOTION_DDOT": 0}, "tle": {"line1": "1 34115U 93036KL  25360.28183080  .00006648  00000+0  88326-3 0  9994", "line2": "2 34115  74.0052 215.2379 0029111  34.6993 325.6074 14.79663462896122"}}, "geometry": {"type": "Point", "coordinates": [-150.40257079115617, -13.820049449106245]}}, {"type": "Feature", "properties": {"norad_id": 34116, "name": "COSMOS 2251 DEB", "group": "cosmos-2251-debris", "lat": 17.406357755730973, "lon": 160.85325618647778, "alt_km": 722.7155742830864, "timestamp": "2025-12-27T02:10:16.582762+00:00", "meta": {"OBJECT_NAME": "COSMOS 2251 DEB", "OBJECT_ID": "1993-036KM", "EPOCH": "2025-12-26T11:30:12.794400", "MEAN_MOTION": 14.53059291, "ECCENTRICITY": 0.0011791, "INCLINATION": 74.0399, "RA_OF_ASC_NODE": 156.8584, "ARG_OF_PERICENTER": 233.4573, "MEAN_ANOMALY": 189.0449, "EPHEMERIS_TYPE": 0, "CLASSIFICATION_TYPE": "U", "NORAD_CAT_ID": 34116, "ELEMENT_SET_NO": 999, "REV_AT_EPOCH": 88686, "BSTAR": 0.00086803, "MEAN_MOTION_DOT": 3.563e-05, "MEAN_MOTION_DDOT": 0}, "tle": {"line1": "1 34116U 93036KM  25360.47931475  .00003563  00000+0  86803-3 0  9996", "line2": "2 34116  74.0399 156.8584 0011791 233.4573 189.0449 14.53059291886862"}}, "geometry": {"type": "Point", "coordinates": [160.85325618647778, 17.406357755730973]}}]}